{"type":"FeatureCollection","features":[{"type":"Feature","properties":{"circuito_id":"00530","nombre":"Tigre Centro","localidad":"Tigre Centro (manual)","osm_id":2411762},"geometry":{"type":"Polygon","coordinates":[[[-58.597,-34.418],[-58.581,-34.41],[-58.562,-34.415],[-58.554,-34.424],[-58.558,-34.437],[-58.571,-34.442],[-58.59,-34.44],[-58.601,-34.432],[-58.597,-34.418]]]}},{"type":"Feature","properties":{"circuito_id":"0534A","nombre":"Benavídez","localidad":"Benavídez","osm_id":2410061},"geometry":{"type":"Polygon","coordinates":[[[-58.7341263,-34.4022193],[-58.7322724,-34.4045968],[-58.7321945,-34.4047006],[-58.7321818,-34.4047175],[-58.7320779,-34.40485],[-58.7310987,-34.4060912],[-58.7304007,-34.4069916],[-58.7302434,-34.4071992],[-58.7301872,-34.4072572],[-58.7300983,-34.4073219],[-58.7300515,-34.4073506],[-58.730007,-34.4073778],[-58.7298101,-34.4074987],[-58.7295245,-34.407657],[-58.7294899,-34.4076707],[-58.7289775,-34.4083867],[-58.728307,-34.4092384],[-58.7276137,-34.4101348],[-58.7265324,-34.4115415],[-58.7254343,-34.4129519],[-58.7241049,-34.4146468],[-58.7234299,-34.4155381],[-58.7227588,-34.4163614],[-58.7221596,-34.4171319],[-58.7220341,-34.4173091],[-58.7216673,-34.4177797],[-58.721432,-34.4180816],[-58.7213699,-34.4181614],[-58.7206709,-34.4190479],[-58.7194265,-34.4206854],[-58.7184744,-34.4219397],[-58.7182355,-34.4222366],[-58.717876,-34.4227076],[-58.7167696,-34.424101],[-58.7154477,-34.4257993],[-58.7146491,-34.4268545],[-58.7145815,-34.4269438],[-58.7144983,-34.4270536],[-58.7141758,-34.4274797],[-58.714021,-34.4277379],[-58.7138621,-34.4280295],[-58.713449,-34.4289473],[-58.7134041,-34.4290471],[-58.7132132,-34.4294937],[-58.7130862,-34.4298136],[-58.7129522,-34.429871],[-58.7128893,-34.4299045],[-58.7125787,-34.430208],[-58.7119894,-34.4309878],[-58.7115385,-34.4315845],[-58.7111653,-34.4321227],[-58.7110519,-34.4321822],[-58.7096351,-34.4327597],[-58.704049,-34.4350852],[-58.7034148,-34.4353492],[-58.7020674,-34.4359101],[-58.7006937,-34.436482],[-58.7006132,-34.4365154],[-58.7004516,-34.4365825],[-58.700309,-34.4361849],[-58.6980117,-34.434897],[-58.6979673,-34.4348869],[-58.6969162,-34.4343155],[-58.6962234,-34.4351897],[-58.6956014,-34.435997],[-58.6955187,-34.4360158],[-58.6954484,-34.435999],[-58.6944484,-34.4354796],[-58.6932145,-34.4348173],[-58.6921088,-34.4342319],[-58.6910206,-34.4336431],[-58.6897939,-34.4329794],[-58.688566,-34.432315],[-58.6874971,-34.4317501],[-58.6871379,-34.4314719],[-58.687103,-34.4315362],[-58.6869613,-34.4318615],[-58.6868501,-34.4321332],[-58.6867949,-34.4322681],[-58.6867025,-34.4324155],[-58.6865238,-34.4325934],[-58.6862527,-34.432817],[-58.6859529,-34.4330338],[-58.6858521,-34.4331067],[-58.685776,-34.4331849],[-58.6856673,-34.43331],[-58.685581,-34.4334523],[-58.6854824,-34.4337928],[-58.6853592,-34.4342401],[-58.6853171,-34.4343663],[-58.6852564,-34.4344794],[-58.6851723,-34.4345964],[-58.6849133,-34.4349121],[-58.6845247,-34.4353857],[-58.6838353,-34.4362805],[-58.6818877,-34.4387853],[-58.6818317,-34.4388573],[-58.681725,-34.4389945],[-58.6815204,-34.4392576],[-58.681402,-34.4394084],[-58.6813396,-34.4393756],[-58.6803673,-34.4388648],[-58.679379,-34.4383473],[-58.6774088,-34.4372943],[-58.6759624,-34.4365202],[-58.6745214,-34.4357435],[-58.6732362,-34.4350636],[-58.6722961,-34.4345662],[-58.6715169,-34.4341426],[-58.6702538,-34.4334668],[-58.6691997,-34.4328944],[-58.6681319,-34.4323246],[-58.6670815,-34.431756],[-58.6641015,-34.4301704],[-58.6627563,-34.429442],[-58.6618521,-34.4289578],[-58.6616108,-34.4288466],[-58.661404,-34.4287566],[-58.661096,-34.4286267],[-58.662101,-34.4277483],[-58.6632752,-34.4267341],[-58.6634124,-34.4266102],[-58.6653597,-34.4248675],[-58.670194,-34.420576],[-58.673202,-34.4179093],[-58.6763588,-34.4150948],[-58.676822,-34.41468],[-58.6773244,-34.4142695],[-58.6781485,-34.41362],[-58.6794165,-34.4127378],[-58.6792328,-34.4125131],[-58.6788421,-34.4123003],[-58.6787867,-34.412267],[-58.6787723,-34.4122583],[-58.6786398,-34.4121904],[-58.6785202,-34.4121255],[-58.6783434,-34.4120412],[-58.6783173,-34.4120173],[-58.6782986,-34.4119899],[-58.6782941,-34.4119637],[-58.6783011,-34.4119385],[-58.6783246,-34.4119132],[-58.6780468,-34.4119212],[-58.6778563,-34.4117522],[-58.6767183,-34.4111424],[-58.6731749,-34.4093413],[-58.6704132,-34.4078447],[-58.6704504,-34.407791],[-58.6761105,-34.4001818],[-58.6763204,-34.3999011],[-58.6737464,-34.3985339],[-58.6734487,-34.3983758],[-58.673307,-34.3983005],[-58.6724732,-34.3978576],[-58.671217,-34.3971904],[-58.6711055,-34.3970999],[-58.6710405,-34.3970234],[-58.6710183,-34.3969782],[-58.670997,-34.3969479],[-58.6709661,-34.3969176],[-58.6709201,-34.3968812],[-58.6708746,-34.3968549],[-58.6708266,-34.3968373],[-58.6707814,-34.3968278],[-58.6707262,-34.3968238],[-58.6706657,-34.3968287],[-58.6705388,-34.396796],[-58.6704238,-34.3967581],[-58.6703624,-34.396726],[-58.6692021,-34.3961121],[-58.6685915,-34.395789],[-58.6683854,-34.3960698],[-58.6679687,-34.396629],[-58.6668248,-34.3981638],[-58.6660518,-34.3977518],[-58.6645289,-34.3969401],[-58.6637468,-34.398003],[-58.660458,-34.4024723],[-58.6551944,-34.3995319],[-58.6550774,-34.3994818],[-58.6549136,-34.3993948],[-58.6533587,-34.3985685],[-58.6532738,-34.3985234],[-58.6522259,-34.39796],[-58.6520515,-34.3978704],[-58.6516325,-34.3976549],[-58.6514168,-34.3975518],[-58.6512924,-34.3975104],[-58.6511046,-34.3974692],[-58.6509864,-34.3974595],[-58.6509553,-34.3973876],[-58.6509559,-34.3973482],[-58.6509604,-34.3972783],[-58.6509671,-34.397231],[-58.6509805,-34.3971503],[-58.6510109,-34.3970974],[-58.65108,-34.3970376],[-58.6511947,-34.3969485],[-58.6512841,-34.3968678],[-58.6513482,-34.3967843],[-58.6514038,-34.3966814],[-58.6514965,-34.3965464],[-58.651537,-34.3964727],[-58.6515994,-34.3963224],[-58.6516601,-34.3961735],[-58.6517579,-34.3958632],[-58.651822,-34.3956684],[-58.6518591,-34.395578],[-58.6519164,-34.3954569],[-58.6519384,-34.3953498],[-58.6519535,-34.3951744],[-58.6519603,-34.3950172],[-58.6519738,-34.3949114],[-58.6519957,-34.3948085],[-58.6520007,-34.3947013],[-58.6520024,-34.3945705],[-58.6520133,-34.3944868],[-58.6520463,-34.394391],[-58.652107,-34.3942658],[-58.6521456,-34.3942049],[-58.6522158,-34.3940747],[-58.6522854,-34.3939632],[-58.6523897,-34.3937953],[-58.6524219,-34.3937241],[-58.6524539,-34.3936266],[-58.6524623,-34.3935385],[-58.6524577,-34.3933768],[-58.6524536,-34.3932176],[-58.6524353,-34.3931308],[-58.6524002,-34.3930729],[-58.6523156,-34.3929284],[-58.6522603,-34.3928105],[-58.6522512,-34.3927513],[-58.652289,-34.3925976],[-58.652298,-34.3925155],[-58.6522618,-34.3924229],[-58.6522207,-34.3923436],[-58.6521627,-34.3922568],[-58.6521216,-34.39217],[-58.6520956,-34.3920957],[-58.6520636,-34.3919687],[-58.6520362,-34.391829],[-58.6520438,-34.3917107],[-58.6520654,-34.3915283],[-58.652085,-34.3913684],[-58.6521124,-34.3912665],[-58.6521749,-34.3911545],[-58.6522423,-34.3910759],[-58.6523025,-34.3910253],[-58.6523856,-34.3909702],[-58.6525289,-34.3908796],[-58.6527186,-34.390627],[-58.6529288,-34.390554],[-58.6530474,-34.3904846],[-58.6531229,-34.3904099],[-58.6531703,-34.3903476],[-58.6548281,-34.3886245],[-58.6549183,-34.3885724],[-58.6549722,-34.3885733],[-58.655116,-34.3885757],[-58.6551631,-34.3885764],[-58.6552749,-34.3886266],[-58.6553471,-34.3885827],[-58.6552998,-34.3885309],[-58.6552333,-34.3884597],[-58.6551648,-34.3883741],[-58.6547168,-34.3877646],[-58.6544491,-34.3874124],[-58.6542964,-34.387185],[-58.6542224,-34.3870551],[-58.6541173,-34.3868305],[-58.654,-34.3865523],[-58.6538635,-34.3862569],[-58.6537976,-34.3861286],[-58.6532645,-34.3847986],[-58.6521959,-34.3821968],[-58.6514314,-34.3825181],[-58.651127,-34.3826493],[-58.6510103,-34.3827163],[-58.6509535,-34.3827449],[-58.6509088,-34.3827588],[-58.6508536,-34.3827593],[-58.6507863,-34.3827115],[-58.6507415,-34.3827805],[-58.6506804,-34.3828879],[-58.6506482,-34.3829587],[-58.6505924,-34.3830543],[-58.6505067,-34.3831304],[-58.650408,-34.3832277],[-58.6503501,-34.3832896],[-58.6503051,-34.3833445],[-58.6502729,-34.3834312],[-58.6502622,-34.383525],[-58.6502944,-34.3837568],[-58.6502964,-34.3839105],[-58.6491245,-34.3822663],[-58.6472514,-34.3796381],[-58.646051,-34.3779573],[-58.647286,-34.3775452],[-58.6482856,-34.3773242],[-58.6491692,-34.3770885],[-58.6501599,-34.3767275],[-58.6510481,-34.376314],[-58.6520634,-34.3757664],[-58.6525779,-34.3754445],[-58.6537373,-34.3761235],[-58.6544846,-34.376516],[-58.6551724,-34.3768944],[-58.6616048,-34.3803636],[-58.6674793,-34.3835204],[-58.667902,-34.3837475],[-58.6681958,-34.3839054],[-58.6750349,-34.3875673],[-58.681805,-34.3911721],[-58.687188,-34.3940434],[-58.6875002,-34.3942143],[-58.6876864,-34.3943011],[-58.6878935,-34.3943754],[-58.6881067,-34.3944646],[-58.6888753,-34.3948882],[-58.6904845,-34.3957107],[-58.6914987,-34.396219],[-58.691619,-34.3962937],[-58.6916798,-34.3963417],[-58.6917325,-34.3964119],[-58.6917663,-34.3964743],[-58.6917879,-34.3965346],[-58.6917906,-34.3966081],[-58.6917889,-34.3966359],[-58.6928659,-34.3971325],[-58.6929433,-34.3970885],[-58.693494,-34.3967987],[-58.6950236,-34.3959765],[-58.6957623,-34.3955726],[-58.6967184,-34.3950554],[-58.6970854,-34.3948456],[-58.6972373,-34.3947558],[-58.6976998,-34.3941632],[-58.6981829,-34.3944228],[-58.7044388,-34.397758],[-58.7049764,-34.398044],[-58.7062727,-34.3973389],[-58.711927,-34.3942827],[-58.7125322,-34.3939556],[-58.7155781,-34.3922964],[-58.7158488,-34.3924415],[-58.7164606,-34.3927688],[-58.7175255,-34.3933403],[-58.7185727,-34.393897],[-58.7196145,-34.3944561],[-58.7206818,-34.3950206],[-58.7217462,-34.3955838],[-58.7227879,-34.3961586],[-58.7238372,-34.3967092],[-58.7248992,-34.397283],[-58.7259351,-34.3978357],[-58.7269751,-34.3984005],[-58.728057,-34.3989714],[-58.7290896,-34.3995184],[-58.7301499,-34.4000786],[-58.7312017,-34.4006408],[-58.7322391,-34.4012005],[-58.7332788,-34.4017659],[-58.7341263,-34.4022193]]]}},{"type":"Feature","properties":{"circuito_id":"0534A","nombre":"Benavídez","localidad":"Nordelta","osm_id":2408835},"geometry":{"type":"Polygon","coordinates":[[[-58.6794165,-34.4127378],[-58.6781485,-34.41362],[-58.6773244,-34.4142695],[-58.676822,-34.41468],[-58.6763588,-34.4150948],[-58.673202,-34.4179093],[-58.670194,-34.420576],[-58.6653597,-34.4248675],[-58.6634124,-34.4266102],[-58.6632752,-34.4267341],[-58.662101,-34.4277483],[-58.661096,-34.4286267],[-58.6594925,-34.430084],[-58.6586781,-34.4307666],[-58.6582141,-34.4311201],[-58.6581065,-34.431195],[-58.6567111,-34.4321417],[-58.6564922,-34.4322839],[-58.6528524,-34.4345934],[-58.6493394,-34.4368809],[-58.6465891,-34.4386861],[-58.6465697,-34.4386988],[-58.6464598,-34.4387709],[-58.6458399,-34.4391685],[-58.6394544,-34.4432927],[-58.6390566,-34.4429276],[-58.6235259,-34.4265667],[-58.6236806,-34.4264563],[-58.6272652,-34.4233852],[-58.6282105,-34.4225806],[-58.6293053,-34.4216491],[-58.6290651,-34.4214706],[-58.6259562,-34.419161],[-58.6258273,-34.4190653],[-58.6239735,-34.417688],[-58.6246233,-34.4171098],[-58.625073,-34.4166299],[-58.6253706,-34.4162053],[-58.6258903,-34.4152571],[-58.6261914,-34.4144816],[-58.6263914,-34.4138044],[-58.6264921,-34.4131514],[-58.6265542,-34.4125533],[-58.6265218,-34.4116211],[-58.6264422,-34.4109943],[-58.6262648,-34.4103881],[-58.6258964,-34.4094793],[-58.626519,-34.4092997],[-58.6284986,-34.4087285],[-58.630258,-34.4082209],[-58.6324989,-34.4075743],[-58.6325994,-34.4075455],[-58.6335054,-34.407286],[-58.6337194,-34.4072247],[-58.6338654,-34.4071814],[-58.6345788,-34.4069698],[-58.6373197,-34.4061569],[-58.6378364,-34.4060113],[-58.6391947,-34.4056285],[-58.6394111,-34.405567],[-58.6404513,-34.4052712],[-58.6406922,-34.4052027],[-58.6423395,-34.4047344],[-58.6485486,-34.4029585],[-58.6463853,-34.3997735],[-58.6458391,-34.3990055],[-58.6458037,-34.3989405],[-58.6459627,-34.3988907],[-58.6463468,-34.3987779],[-58.6474485,-34.3984598],[-58.6473675,-34.3983279],[-58.6465174,-34.397131],[-58.6458262,-34.3961579],[-58.6444692,-34.3942473],[-58.6440786,-34.3943655],[-58.6428818,-34.3947275],[-58.6427842,-34.3947361],[-58.6428396,-34.3948139],[-58.6427016,-34.3948669],[-58.642557,-34.3949131],[-58.6416292,-34.3951785],[-58.640502,-34.3954977],[-58.6397741,-34.3956999],[-58.6367736,-34.3916498],[-58.639933,-34.3907308],[-58.6422894,-34.3900563],[-58.64408,-34.3895414],[-58.6441751,-34.3895125],[-58.644897,-34.3892932],[-58.6450066,-34.3892527],[-58.6450556,-34.3892332],[-58.6450859,-34.3892137],[-58.6451125,-34.3891858],[-58.6451129,-34.3891482],[-58.6451051,-34.3891106],[-58.6450885,-34.3890649],[-58.6450532,-34.3890018],[-58.6427227,-34.3858015],[-58.6423683,-34.3852348],[-58.639907,-34.3817918],[-58.6396621,-34.3814408],[-58.6420691,-34.3804335],[-58.6432293,-34.3798267],[-58.6443851,-34.3790404],[-58.6451697,-34.3784586],[-58.646051,-34.3779573],[-58.6472514,-34.3796381],[-58.6491245,-34.3822663],[-58.6502964,-34.3839105],[-58.6502944,-34.3837568],[-58.6502622,-34.383525],[-58.6502729,-34.3834312],[-58.6503051,-34.3833445],[-58.6503501,-34.3832896],[-58.650408,-34.3832277],[-58.6505067,-34.3831304],[-58.6505924,-34.3830543],[-58.6506482,-34.3829587],[-58.6506804,-34.3828879],[-58.6507415,-34.3827805],[-58.6507863,-34.3827115],[-58.6508536,-34.3827593],[-58.6509088,-34.3827588],[-58.6509535,-34.3827449],[-58.6510103,-34.3827163],[-58.651127,-34.3826493],[-58.6514314,-34.3825181],[-58.6521959,-34.3821968],[-58.6532645,-34.3847986],[-58.6537976,-34.3861286],[-58.6538635,-34.3862569],[-58.654,-34.3865523],[-58.6541173,-34.3868305],[-58.6542224,-34.3870551],[-58.6542964,-34.387185],[-58.6544491,-34.3874124],[-58.6547168,-34.3877646],[-58.6551648,-34.3883741],[-58.6552333,-34.3884597],[-58.6552998,-34.3885309],[-58.6553471,-34.3885827],[-58.6552749,-34.3886266],[-58.6551631,-34.3885764],[-58.655116,-34.3885757],[-58.6549722,-34.3885733],[-58.6549183,-34.3885724],[-58.6548281,-34.3886245],[-58.6531703,-34.3903476],[-58.6531229,-34.3904099],[-58.6530474,-34.3904846],[-58.6529288,-34.390554],[-58.6527186,-34.390627],[-58.6525289,-34.3908796],[-58.6523856,-34.3909702],[-58.6523025,-34.3910253],[-58.6522423,-34.3910759],[-58.6521749,-34.3911545],[-58.6521124,-34.3912665],[-58.652085,-34.3913684],[-58.6520654,-34.3915283],[-58.6520438,-34.3917107],[-58.6520362,-34.391829],[-58.6520636,-34.3919687],[-58.6520956,-34.3920957],[-58.6521216,-34.39217],[-58.6521627,-34.3922568],[-58.6522207,-34.3923436],[-58.6522618,-34.3924229],[-58.652298,-34.3925155],[-58.652289,-34.3925976],[-58.6522512,-34.3927513],[-58.6522603,-34.3928105],[-58.6523156,-34.3929284],[-58.6524002,-34.3930729],[-58.6524353,-34.3931308],[-58.6524536,-34.3932176],[-58.6524577,-34.3933768],[-58.6524623,-34.3935385],[-58.6524539,-34.3936266],[-58.6524219,-34.3937241],[-58.6523897,-34.3937953],[-58.6522854,-34.3939632],[-58.6522158,-34.3940747],[-58.6521456,-34.3942049],[-58.652107,-34.3942658],[-58.6520463,-34.394391],[-58.6520133,-34.3944868],[-58.6520024,-34.3945705],[-58.6520007,-34.3947013],[-58.6519957,-34.3948085],[-58.6519738,-34.3949114],[-58.6519603,-34.3950172],[-58.6519535,-34.3951744],[-58.6519384,-34.3953498],[-58.6519164,-34.3954569],[-58.6518591,-34.395578],[-58.651822,-34.3956684],[-58.6517579,-34.3958632],[-58.6516601,-34.3961735],[-58.6515994,-34.3963224],[-58.651537,-34.3964727],[-58.6514965,-34.3965464],[-58.6514038,-34.3966814],[-58.6513482,-34.3967843],[-58.6512841,-34.3968678],[-58.6511947,-34.3969485],[-58.65108,-34.3970376],[-58.6510109,-34.3970974],[-58.6509805,-34.3971503],[-58.6509671,-34.397231],[-58.6509604,-34.3972783],[-58.6509559,-34.3973482],[-58.6509553,-34.3973876],[-58.6509864,-34.3974595],[-58.6511046,-34.3974692],[-58.6512924,-34.3975104],[-58.6514168,-34.3975518],[-58.6516325,-34.3976549],[-58.6520515,-34.3978704],[-58.6522259,-34.39796],[-58.6532738,-34.3985234],[-58.6533587,-34.3985685],[-58.6549136,-34.3993948],[-58.6550774,-34.3994818],[-58.6551944,-34.3995319],[-58.660458,-34.4024723],[-58.6637468,-34.398003],[-58.6645289,-34.3969401],[-58.6660518,-34.3977518],[-58.6668248,-34.3981638],[-58.6679687,-34.396629],[-58.6683854,-34.3960698],[-58.6685915,-34.395789],[-58.6692021,-34.3961121],[-58.6703624,-34.396726],[-58.6704238,-34.3967581],[-58.6705388,-34.396796],[-58.6706657,-34.3968287],[-58.6707262,-34.3968238],[-58.6707814,-34.3968278],[-58.6708266,-34.3968373],[-58.6708746,-34.3968549],[-58.6709201,-34.3968812],[-58.6709661,-34.3969176],[-58.670997,-34.3969479],[-58.6710183,-34.3969782],[-58.6710405,-34.3970234],[-58.6711055,-34.3970999],[-58.671217,-34.3971904],[-58.6724732,-34.3978576],[-58.673307,-34.3983005],[-58.6734487,-34.3983758],[-58.6737464,-34.3985339],[-58.6763204,-34.3999011],[-58.6761105,-34.4001818],[-58.6704504,-34.407791],[-58.6704132,-34.4078447],[-58.6731749,-34.4093413],[-58.6767183,-34.4111424],[-58.6778563,-34.4117522],[-58.6780468,-34.4119212],[-58.6783246,-34.4119132],[-58.6783011,-34.4119385],[-58.6782941,-34.4119637],[-58.6782986,-34.4119899],[-58.6783173,-34.4120173],[-58.6783434,-34.4120412],[-58.6785202,-34.4121255],[-58.6786398,-34.4121904],[-58.6787723,-34.4122583],[-58.6787867,-34.412267],[-58.6788421,-34.4123003],[-58.6792328,-34.4125131],[-58.6794165,-34.4127378]]]}},{"type":"Feature","properties":{"circuito_id":"00535","nombre":"Don Torcuato","localidad":"Don Torcuato","osm_id":1870715},"geometry":{"type":"Polygon","coordinates":[[[-58.6613169,-34.4888833],[-58.6603192,-34.489715],[-58.6601753,-34.4898382],[-58.6591395,-34.4907265],[-58.6583086,-34.4914253],[-58.6574693,-34.4921213],[-58.6565988,-34.4928336],[-58.655805,-34.4935497],[-58.6549378,-34.4942967],[-58.6541273,-34.4949823],[-58.6534946,-34.495501],[-58.6533918,-34.4955868],[-58.6531733,-34.4957648],[-58.6526925,-34.496161],[-58.6526409,-34.4962076],[-58.652457,-34.496373],[-58.6518744,-34.4968794],[-58.6498595,-34.4985834],[-58.6483006,-34.4998885],[-58.6465679,-34.5013688],[-58.6463242,-34.5015771],[-58.6461611,-34.5017144],[-58.6459344,-34.5018953],[-58.6458707,-34.5019424],[-58.6455797,-34.5021789],[-58.6435551,-34.5038893],[-58.642367,-34.5048908],[-58.6381414,-34.508453],[-58.6073326,-34.5344203],[-58.6069873,-34.5347113],[-58.6063478,-34.5342284],[-58.6059258,-34.5338406],[-58.6053932,-34.5331317],[-58.6052666,-34.5327296],[-58.605035,-34.5314756],[-58.6049005,-34.5301027],[-58.604882,-34.5299137],[-58.6048223,-34.5293046],[-58.6045741,-34.528242],[-58.6044602,-34.5277541],[-58.6042801,-34.5269762],[-58.604218,-34.5264798],[-58.6041357,-34.5261071],[-58.6035533,-34.5244121],[-58.6034317,-34.5239096],[-58.603311,-34.5235983],[-58.6030998,-34.5231582],[-58.6028772,-34.5227995],[-58.6018017,-34.5214152],[-58.6015439,-34.5209536],[-58.6014561,-34.5206242],[-58.6014166,-34.5202587],[-58.601462,-34.5196958],[-58.6015491,-34.5190536],[-58.601723,-34.5177713],[-58.602212,-34.5153936],[-58.6024601,-34.514024],[-58.6026989,-34.5127056],[-58.6027689,-34.512305],[-58.6027899,-34.512011],[-58.6027316,-34.5115189],[-58.6013679,-34.5055312],[-58.6009319,-34.5033484],[-58.600824,-34.5028793],[-58.6007016,-34.5025305],[-58.6005197,-34.5021327],[-58.5985825,-34.4990631],[-58.5984267,-34.4985776],[-58.5983816,-34.4980937],[-58.5984398,-34.4975234],[-58.5985221,-34.4971217],[-58.5986174,-34.4968115],[-58.5988132,-34.4962158],[-58.5990901,-34.4956234],[-58.5996609,-34.4949874],[-58.6003685,-34.4942993],[-58.6006263,-34.4939411],[-58.6007682,-34.493601],[-58.6008713,-34.4930961],[-58.6009039,-34.4926557],[-58.6007677,-34.4916812],[-58.6004291,-34.4905502],[-58.599802,-34.4894301],[-58.5996858,-34.4888569],[-58.599539,-34.4882094],[-58.5994982,-34.4879151],[-58.5994429,-34.4861485],[-58.6032514,-34.4809362],[-58.6041261,-34.4797391],[-58.6045846,-34.4792422],[-58.6047739,-34.479037],[-58.6051887,-34.4784999],[-58.605358,-34.4782143],[-58.605474,-34.4779598],[-58.6055301,-34.4777423],[-58.6055477,-34.4774839],[-58.6055033,-34.4771502],[-58.605432,-34.4768909],[-58.6057483,-34.4766512],[-58.6063242,-34.4762381],[-58.6069281,-34.4758482],[-58.6075787,-34.4755044],[-58.6082481,-34.4751991],[-58.608943,-34.4749323],[-58.609666,-34.4746964],[-58.6103844,-34.4744758],[-58.6111214,-34.4743245],[-58.6113117,-34.4743118],[-58.6125928,-34.474226],[-58.6143768,-34.47413],[-58.6152407,-34.47404],[-58.6160282,-34.4739358],[-58.6172386,-34.4737265],[-58.6179653,-34.4735789],[-58.6187786,-34.4733768],[-58.6203466,-34.4729249],[-58.6223457,-34.4721556],[-58.6224706,-34.4721104],[-58.6248747,-34.4711748],[-58.6250613,-34.4711007],[-58.6269651,-34.4703509],[-58.6274677,-34.4706231],[-58.6275052,-34.470664],[-58.6275505,-34.4706952],[-58.6282876,-34.4710893],[-58.6291012,-34.4715244],[-58.6308588,-34.4724591],[-58.6325507,-34.4733876],[-58.6328515,-34.4735496],[-58.6343465,-34.4743335],[-58.6351485,-34.474778],[-58.6360539,-34.4752716],[-58.6361251,-34.4753097],[-58.637669,-34.4761364],[-58.6377871,-34.4761997],[-58.6386794,-34.4766753],[-58.6395344,-34.477128],[-58.6404069,-34.4775826],[-58.641284,-34.478061],[-58.6419832,-34.4784313],[-58.6420872,-34.4784817],[-58.6421849,-34.4785358],[-58.6429608,-34.4789524],[-58.6430582,-34.4790025],[-58.6440549,-34.4795465],[-58.6441064,-34.479581],[-58.6441792,-34.4796564],[-58.6458345,-34.4804949],[-58.6464731,-34.4808315],[-58.6465147,-34.4808595],[-58.6482653,-34.4817843],[-58.6486021,-34.4819652],[-58.6491094,-34.4822349],[-58.6500009,-34.4827244],[-58.6508793,-34.4831824],[-58.6516047,-34.483568],[-58.6516596,-34.4836051],[-58.6517191,-34.4836557],[-58.6517789,-34.4837197],[-58.6518316,-34.4837645],[-58.6531342,-34.4844549],[-58.653542,-34.4846727],[-58.6545739,-34.4852636],[-58.6547644,-34.4853721],[-58.65495,-34.4854713],[-58.6556668,-34.4858546],[-58.6562463,-34.4861644],[-58.6573425,-34.4867548],[-58.6574033,-34.4867875],[-58.6578124,-34.4870075],[-58.6579671,-34.4870849],[-58.6585951,-34.4874174],[-58.6594063,-34.4878469],[-58.6599098,-34.4881137],[-58.6600759,-34.4881993],[-58.6611294,-34.4887723],[-58.6613169,-34.4888833]]]}},{"type":"Feature","properties":{"circuito_id":"00535","nombre":"Don Torcuato","localidad":"Troncos del Talar","osm_id":2408830},"geometry":{"type":"Polygon","coordinates":[[[-58.6394544,-34.4432927],[-58.6387987,-34.4437209],[-58.6221661,-34.4545052],[-58.6205052,-34.4555887],[-58.6203757,-34.4556732],[-58.6198112,-34.4560414],[-58.6192328,-34.4564191],[-58.6190343,-34.4565567],[-58.6188481,-34.4566899],[-58.6186009,-34.4568727],[-58.6182929,-34.457113],[-58.6179054,-34.4574277],[-58.6176141,-34.4576836],[-58.6172486,-34.4580157],[-58.6168537,-34.4584168],[-58.6165997,-34.458694],[-58.616339,-34.4590038],[-58.616152,-34.4592394],[-58.6159763,-34.4594898],[-58.6158517,-34.459667],[-58.6150457,-34.460963],[-58.6139203,-34.4627892],[-58.6085625,-34.471453],[-58.6084692,-34.4716045],[-58.6071115,-34.4738233],[-58.6070158,-34.4739796],[-58.6067681,-34.4743744],[-58.6066016,-34.4746455],[-58.6063354,-34.475079],[-58.6059823,-34.4756115],[-58.6055888,-34.4761536],[-58.6053303,-34.4765104],[-58.604713,-34.4749966],[-58.6043299,-34.4738721],[-58.604057,-34.4731334],[-58.6039578,-34.4728647],[-58.6032362,-34.4705155],[-58.6013565,-34.4649252],[-58.6004247,-34.4619444],[-58.5996521,-34.4593605],[-58.599445,-34.458867],[-58.5990738,-34.4582116],[-58.5956972,-34.4525345],[-58.5954547,-34.4520967],[-58.5952894,-34.4516765],[-58.5951998,-34.451339],[-58.5951915,-34.4506917],[-58.5952527,-34.4502267],[-58.5953492,-34.4497119],[-58.5953904,-34.4492765],[-58.5953837,-34.4490397],[-58.5953567,-34.4488839],[-58.5953531,-34.4486605],[-58.5953882,-34.4483728],[-58.5961133,-34.4484427],[-58.5961612,-34.4484512],[-58.5962123,-34.4484576],[-58.5962482,-34.4484649],[-58.5962998,-34.4484727],[-58.5963638,-34.4484712],[-58.5964286,-34.4484476],[-58.5964655,-34.4484291],[-58.5965046,-34.4483993],[-58.5965413,-34.4483499],[-58.5965645,-34.448278],[-58.5968303,-34.4470924],[-58.5970234,-34.446234],[-58.5970589,-34.4460762],[-58.5971251,-34.445762],[-58.5972133,-34.4454448],[-58.5972856,-34.4451747],[-58.5974049,-34.4447677],[-58.5974258,-34.4447198],[-58.5974574,-34.4446675],[-58.5973872,-34.444347],[-58.5973829,-34.4442648],[-58.5973811,-34.4442066],[-58.5973715,-34.4441474],[-58.5973209,-34.4439736],[-58.5972696,-34.443703],[-58.5972309,-34.4435169],[-58.5972009,-34.4433382],[-58.5971734,-34.4431078],[-58.5971314,-34.4427982],[-58.5971172,-34.4426468],[-58.5971099,-34.4424791],[-58.5971149,-34.442364],[-58.5970988,-34.4422621],[-58.5970854,-34.4422152],[-58.5970573,-34.4421297],[-58.5970158,-34.4419448],[-58.5968577,-34.441583],[-58.597406,-34.4412499],[-58.5986376,-34.440407],[-58.599654,-34.4397321],[-58.6003908,-34.4391389],[-58.6028723,-34.4368515],[-58.6060853,-34.433895],[-58.609585,-34.4307132],[-58.6235412,-34.4180535],[-58.6239735,-34.417688],[-58.6258273,-34.4190653],[-58.6259562,-34.419161],[-58.6290651,-34.4214706],[-58.6293053,-34.4216491],[-58.6282105,-34.4225806],[-58.6272652,-34.4233852],[-58.6236806,-34.4264563],[-58.6235259,-34.4265667],[-58.6390566,-34.4429276],[-58.6394544,-34.4432927]]]}},{"type":"Feature","properties":{"circuito_id":"00534","nombre":"El Talar","localidad":"El Talar","osm_id":1870716},"geometry":{"type":"Polygon","coordinates":[[[-58.6806261,-34.4714016],[-58.6785516,-34.4740336],[-58.6783499,-34.4742904],[-58.6781951,-34.4744711],[-58.6780778,-34.4746031],[-58.6776375,-34.4750093],[-58.6766305,-34.475872],[-58.6749269,-34.4773486],[-58.6747918,-34.4774699],[-58.6740721,-34.478081],[-58.6734896,-34.4785668],[-58.6733999,-34.4786545],[-58.6726266,-34.4792846],[-58.6724696,-34.4794126],[-58.6721489,-34.4796817],[-58.6718822,-34.4799201],[-58.6716869,-34.4800808],[-58.6710765,-34.4806105],[-58.6704619,-34.481145],[-58.6704363,-34.4811686],[-58.6698192,-34.4816759],[-58.6692376,-34.4821692],[-58.6691803,-34.4822174],[-58.6686643,-34.4826485],[-58.6685489,-34.4827515],[-58.6678937,-34.4833144],[-58.6677911,-34.4834008],[-58.6672019,-34.4838948],[-58.6670998,-34.4839804],[-58.6666375,-34.4843644],[-58.6663036,-34.4846478],[-58.6660674,-34.4848479],[-58.6654751,-34.4853547],[-58.6647935,-34.4859454],[-58.6647142,-34.4860226],[-58.6640755,-34.4865537],[-58.6639076,-34.4867029],[-58.6633733,-34.4871272],[-58.6631028,-34.4873755],[-58.6626943,-34.4877186],[-58.6621705,-34.4881749],[-58.6619795,-34.4883316],[-58.6615005,-34.4887333],[-58.6613169,-34.4888833],[-58.6611294,-34.4887723],[-58.6600759,-34.4881993],[-58.6599098,-34.4881137],[-58.6594063,-34.4878469],[-58.6585951,-34.4874174],[-58.6579671,-34.4870849],[-58.6578124,-34.4870075],[-58.6574033,-34.4867875],[-58.6573425,-34.4867548],[-58.6562463,-34.4861644],[-58.6556668,-34.4858546],[-58.65495,-34.4854713],[-58.6547644,-34.4853721],[-58.6545739,-34.4852636],[-58.653542,-34.4846727],[-58.6531342,-34.4844549],[-58.6518316,-34.4837645],[-58.6517789,-34.4837197],[-58.6517191,-34.4836557],[-58.6516596,-34.4836051],[-58.6516047,-34.483568],[-58.6508793,-34.4831824],[-58.6500009,-34.4827244],[-58.6491094,-34.4822349],[-58.6486021,-34.4819652],[-58.6482653,-34.4817843],[-58.6465147,-34.4808595],[-58.6464731,-34.4808315],[-58.6458345,-34.4804949],[-58.6441792,-34.4796564],[-58.6441064,-34.479581],[-58.6440549,-34.4795465],[-58.6430582,-34.4790025],[-58.6429608,-34.4789524],[-58.6421849,-34.4785358],[-58.6420872,-34.4784817],[-58.6419832,-34.4784313],[-58.641284,-34.478061],[-58.6404069,-34.4775826],[-58.6395344,-34.477128],[-58.6386794,-34.4766753],[-58.6377871,-34.4761997],[-58.637669,-34.4761364],[-58.6361251,-34.4753097],[-58.6360539,-34.4752716],[-58.6351485,-34.474778],[-58.6343465,-34.4743335],[-58.6328515,-34.4735496],[-58.6325507,-34.4733876],[-58.6308588,-34.4724591],[-58.6291012,-34.4715244],[-58.6282876,-34.4710893],[-58.6275505,-34.4706952],[-58.6275052,-34.470664],[-58.6274677,-34.4706231],[-58.6269651,-34.4703509],[-58.6286868,-34.4696744],[-58.6420294,-34.4644319],[-58.6424628,-34.4642616],[-58.6441415,-34.4636009],[-58.6446656,-34.4633928],[-58.6452791,-34.4631466],[-58.6459738,-34.4628285],[-58.6461571,-34.4627439],[-58.6462809,-34.4626885],[-58.6478357,-34.4619105],[-58.6482329,-34.4617021],[-58.6483271,-34.4616542],[-58.6483888,-34.4616229],[-58.6485168,-34.4615594],[-58.6530217,-34.459283],[-58.6555399,-34.4580123],[-58.658802,-34.4563565],[-58.6597233,-34.4558891],[-58.6603486,-34.4555715],[-58.6606983,-34.4557237],[-58.660746,-34.4557704],[-58.6607804,-34.4558005],[-58.6615476,-34.4562089],[-58.6616473,-34.4562624],[-58.6622443,-34.4565828],[-58.6623353,-34.4566317],[-58.6629665,-34.4569704],[-58.6632794,-34.4571384],[-58.6636743,-34.4573509],[-58.6641946,-34.4576299],[-58.6643661,-34.4577219],[-58.6651242,-34.4581284],[-58.6660673,-34.4586342],[-58.6667517,-34.4589982],[-58.6670033,-34.459132],[-58.6674341,-34.4593611],[-58.6684791,-34.4599169],[-58.6694336,-34.460413],[-58.6688729,-34.4614319],[-58.6683267,-34.4624484],[-58.6682593,-34.4625792],[-58.6677983,-34.4634433],[-58.6744508,-34.4669019],[-58.6733182,-34.4683559],[-58.6730413,-34.4687114],[-58.6726313,-34.4692377],[-58.6720198,-34.4699941],[-58.6708323,-34.4715472],[-58.670216,-34.4723392],[-58.6701172,-34.4724662],[-58.6698127,-34.4728574],[-58.6685622,-34.4745547],[-58.6690574,-34.4744077],[-58.6695184,-34.4742709],[-58.6695429,-34.4742636],[-58.6702565,-34.4739553],[-58.6703867,-34.473899],[-58.6707251,-34.4737968],[-58.6716402,-34.4735472],[-58.6718088,-34.4734994],[-58.6733459,-34.4730577],[-58.6743004,-34.4727977],[-58.6746409,-34.4726972],[-58.6748376,-34.4726422],[-58.6753869,-34.4724846],[-58.6761066,-34.472287],[-58.6762726,-34.4722458],[-58.6766178,-34.4721601],[-58.6771725,-34.4720378],[-58.6782066,-34.471811],[-58.6790615,-34.471681],[-58.6801855,-34.471494],[-58.6806261,-34.4714016]]]}},{"type":"Feature","properties":{"circuito_id":"00536","nombre":"General Pacheco","localidad":"General Pacheco","osm_id":1943943},"geometry":{"type":"Polygon","coordinates":[[[-58.7004516,-34.4365825],[-58.6992162,-34.4370931],[-58.6864494,-34.4423692],[-58.684892,-34.4431524],[-58.6797063,-34.4457601],[-58.6785819,-34.4463344],[-58.6778757,-34.4466892],[-58.6773789,-34.4469388],[-58.6753582,-34.4479706],[-58.672058,-34.4496193],[-58.670804,-34.4502754],[-58.670605,-34.4503759],[-58.6655546,-34.4529272],[-58.6640219,-34.4537052],[-58.6621092,-34.454677],[-58.6609638,-34.4552589],[-58.66065,-34.4554184],[-58.6603486,-34.4555715],[-58.6597233,-34.4558891],[-58.658802,-34.4563565],[-58.6555399,-34.4580123],[-58.6530217,-34.459283],[-58.6485168,-34.4615594],[-58.6483888,-34.4616229],[-58.6483271,-34.4616542],[-58.6482329,-34.4617021],[-58.6478357,-34.4619105],[-58.6462809,-34.4626885],[-58.6461571,-34.4627439],[-58.6459738,-34.4628285],[-58.6452791,-34.4631466],[-58.6446656,-34.4633928],[-58.6441415,-34.4636009],[-58.6424628,-34.4642616],[-58.6420294,-34.4644319],[-58.6286868,-34.4696744],[-58.6269651,-34.4703509],[-58.6250613,-34.4711007],[-58.6248747,-34.4711748],[-58.6224706,-34.4721104],[-58.6223457,-34.4721556],[-58.6203466,-34.4729249],[-58.6187786,-34.4733768],[-58.6179653,-34.4735789],[-58.6172386,-34.4737265],[-58.6160282,-34.4739358],[-58.6152407,-34.47404],[-58.6143768,-34.47413],[-58.6125928,-34.474226],[-58.6113117,-34.4743118],[-58.6111214,-34.4743245],[-58.6103844,-34.4744758],[-58.609666,-34.4746964],[-58.608943,-34.4749323],[-58.6082481,-34.4751991],[-58.6075787,-34.4755044],[-58.6069281,-34.4758482],[-58.6063242,-34.4762381],[-58.6057483,-34.4766512],[-58.605432,-34.4768909],[-58.6053303,-34.4765104],[-58.6055888,-34.4761536],[-58.6059823,-34.4756115],[-58.6063354,-34.475079],[-58.6066016,-34.4746455],[-58.6067681,-34.4743744],[-58.6070158,-34.4739796],[-58.6071115,-34.4738233],[-58.6084692,-34.4716045],[-58.6085625,-34.471453],[-58.6139203,-34.4627892],[-58.6150457,-34.460963],[-58.6158517,-34.459667],[-58.6159763,-34.4594898],[-58.616152,-34.4592394],[-58.616339,-34.4590038],[-58.6165997,-34.458694],[-58.6168537,-34.4584168],[-58.6172486,-34.4580157],[-58.6176141,-34.4576836],[-58.6179054,-34.4574277],[-58.6182929,-34.457113],[-58.6186009,-34.4568727],[-58.6188481,-34.4566899],[-58.6190343,-34.4565567],[-58.6192328,-34.4564191],[-58.6198112,-34.4560414],[-58.6203757,-34.4556732],[-58.6205052,-34.4555887],[-58.6221661,-34.4545052],[-58.6387987,-34.4437209],[-58.6394544,-34.4432927],[-58.6458399,-34.4391685],[-58.6464598,-34.4387709],[-58.6465697,-34.4386988],[-58.6465891,-34.4386861],[-58.6493394,-34.4368809],[-58.6528524,-34.4345934],[-58.6564922,-34.4322839],[-58.6567111,-34.4321417],[-58.6581065,-34.431195],[-58.6582141,-34.4311201],[-58.6586781,-34.4307666],[-58.6594925,-34.430084],[-58.661096,-34.4286267],[-58.661404,-34.4287566],[-58.6616108,-34.4288466],[-58.6618521,-34.4289578],[-58.6627563,-34.429442],[-58.6641015,-34.4301704],[-58.6670815,-34.431756],[-58.6681319,-34.4323246],[-58.6691997,-34.4328944],[-58.6702538,-34.4334668],[-58.6715169,-34.4341426],[-58.6722961,-34.4345662],[-58.6732362,-34.4350636],[-58.6745214,-34.4357435],[-58.6759624,-34.4365202],[-58.6774088,-34.4372943],[-58.679379,-34.4383473],[-58.6803673,-34.4388648],[-58.6813396,-34.4393756],[-58.681402,-34.4394084],[-58.6815204,-34.4392576],[-58.681725,-34.4389945],[-58.6818317,-34.4388573],[-58.6818877,-34.4387853],[-58.6838353,-34.4362805],[-58.6845247,-34.4353857],[-58.6849133,-34.4349121],[-58.6851723,-34.4345964],[-58.6852564,-34.4344794],[-58.6853171,-34.4343663],[-58.6853592,-34.4342401],[-58.6854824,-34.4337928],[-58.685581,-34.4334523],[-58.6856673,-34.43331],[-58.685776,-34.4331849],[-58.6858521,-34.4331067],[-58.6859529,-34.4330338],[-58.6862527,-34.432817],[-58.6865238,-34.4325934],[-58.6867025,-34.4324155],[-58.6867949,-34.4322681],[-58.6868501,-34.4321332],[-58.6869613,-34.4318615],[-58.687103,-34.4315362],[-58.6871379,-34.4314719],[-58.6874971,-34.4317501],[-58.688566,-34.432315],[-58.6897939,-34.4329794],[-58.6910206,-34.4336431],[-58.6921088,-34.4342319],[-58.6932145,-34.4348173],[-58.6944484,-34.4354796],[-58.6954484,-34.435999],[-58.6955187,-34.4360158],[-58.6956014,-34.435997],[-58.6962234,-34.4351897],[-58.6969162,-34.4343155],[-58.6979673,-34.4348869],[-58.6980117,-34.434897],[-58.700309,-34.4361849],[-58.7004516,-34.4365825]]]}},{"type":"Feature","properties":{"circuito_id":"0535A","nombre":"Ricardo Rojas","localidad":"Ricardo Rojas","osm_id":2409681},"geometry":{"type":"Polygon","coordinates":[[[-58.7111653,-34.4321227],[-58.708514,-34.436595],[-58.7082441,-34.4368242],[-58.707463,-34.4375193],[-58.7070705,-34.4378899],[-58.7066732,-34.4382533],[-58.7065372,-34.4383539],[-58.7064261,-34.4384361],[-58.7062505,-34.4385805],[-58.7061098,-34.4386998],[-58.7059816,-34.4388151],[-58.7059228,-34.4388583],[-58.7058519,-34.4389184],[-58.7057688,-34.439003],[-58.7056459,-34.4391281],[-58.7055882,-34.4391964],[-58.7055082,-34.4392911],[-58.7054147,-34.4394121],[-58.7053898,-34.4394443],[-58.7053135,-34.439543],[-58.7052891,-34.4395742],[-58.7051683,-34.4397284],[-58.7049544,-34.4400416],[-58.7047907,-34.4403407],[-58.7046727,-34.4405388],[-58.7045546,-34.4407044],[-58.7044414,-34.4408447],[-58.7039769,-34.44142],[-58.7034519,-34.442092],[-58.7028144,-34.4429122],[-58.7026851,-34.4430822],[-58.702141,-34.4437827],[-58.7003825,-34.4460469],[-58.7002985,-34.4461562],[-58.7001131,-34.4463615],[-58.6997554,-34.4467033],[-58.6995849,-34.4468682],[-58.6995588,-34.4468994],[-58.699431,-34.4470523],[-58.6992425,-34.4473014],[-58.6991446,-34.4474462],[-58.6991338,-34.4474589],[-58.6989605,-34.4476384],[-58.698876,-34.4477718],[-58.6988306,-34.4478288],[-58.6987587,-34.4479493],[-58.698605,-34.4482068],[-58.6983,-34.4487178],[-58.6981118,-34.4489827],[-58.697533,-34.4497159],[-58.6967598,-34.4507167],[-58.6961512,-34.4515008],[-58.695988,-34.4517111],[-58.6956676,-34.4521116],[-58.695119,-34.4526814],[-58.6945153,-34.4532837],[-58.6943275,-34.4536043],[-58.69423,-34.4537583],[-58.693837,-34.4544417],[-58.6920521,-34.4567623],[-58.6916631,-34.4572595],[-58.6914454,-34.4575415],[-58.6913773,-34.4576223],[-58.6912234,-34.4578048],[-58.6909645,-34.4580789],[-58.6906475,-34.4583904],[-58.6905068,-34.4585446],[-58.6903067,-34.4587592],[-58.6900407,-34.4590836],[-58.6899319,-34.4592085],[-58.6897351,-34.4594558],[-58.6896362,-34.459604],[-58.689559,-34.4597531],[-58.6894439,-34.4599701],[-58.6893109,-34.460219],[-58.6892228,-34.4603544],[-58.6889586,-34.4606836],[-58.6889133,-34.4607421],[-58.6887926,-34.4608964],[-58.6887119,-34.4609957],[-58.6884826,-34.4612915],[-58.6884023,-34.4613952],[-58.6879896,-34.461937],[-58.6875434,-34.4625155],[-58.6874204,-34.4626446],[-58.6873369,-34.4627527],[-58.6872242,-34.4628887],[-58.6870478,-34.4630947],[-58.6868806,-34.4632452],[-58.6865183,-34.4636409],[-58.6861595,-34.4640281],[-58.6859407,-34.4643193],[-58.6858063,-34.4645105],[-58.685681,-34.4647382],[-58.6853919,-34.4652591],[-58.6852207,-34.4654556],[-58.6843984,-34.4663499],[-58.6806261,-34.4714016],[-58.6801855,-34.471494],[-58.6790615,-34.471681],[-58.6782066,-34.471811],[-58.6771725,-34.4720378],[-58.6766178,-34.4721601],[-58.6762726,-34.4722458],[-58.6761066,-34.472287],[-58.6753869,-34.4724846],[-58.6748376,-34.4726422],[-58.6746409,-34.4726972],[-58.6743004,-34.4727977],[-58.6733459,-34.4730577],[-58.6718088,-34.4734994],[-58.6716402,-34.4735472],[-58.6707251,-34.4737968],[-58.6703867,-34.473899],[-58.6702565,-34.4739553],[-58.6695429,-34.4742636],[-58.6695184,-34.4742709],[-58.6690574,-34.4744077],[-58.6685622,-34.4745547],[-58.6698127,-34.4728574],[-58.6701172,-34.4724662],[-58.670216,-34.4723392],[-58.6708323,-34.4715472],[-58.6720198,-34.4699941],[-58.6726313,-34.4692377],[-58.6730413,-34.4687114],[-58.6733182,-34.4683559],[-58.6744508,-34.4669019],[-58.6677983,-34.4634433],[-58.6682593,-34.4625792],[-58.6683267,-34.4624484],[-58.6688729,-34.4614319],[-58.6694336,-34.460413],[-58.6684791,-34.4599169],[-58.6674341,-34.4593611],[-58.6670033,-34.459132],[-58.6667517,-34.4589982],[-58.6660673,-34.4586342],[-58.6651242,-34.4581284],[-58.6643661,-34.4577219],[-58.6641946,-34.4576299],[-58.6636743,-34.4573509],[-58.6632794,-34.4571384],[-58.6629665,-34.4569704],[-58.6623353,-34.4566317],[-58.6622443,-34.4565828],[-58.6616473,-34.4562624],[-58.6615476,-34.4562089],[-58.6607804,-34.4558005],[-58.660746,-34.4557704],[-58.6606983,-34.4557237],[-58.6603486,-34.4555715],[-58.66065,-34.4554184],[-58.6609638,-34.4552589],[-58.6621092,-34.454677],[-58.6640219,-34.4537052],[-58.6655546,-34.4529272],[-58.670605,-34.4503759],[-58.670804,-34.4502754],[-58.672058,-34.4496193],[-58.6753582,-34.4479706],[-58.6773789,-34.4469388],[-58.6778757,-34.4466892],[-58.6785819,-34.4463344],[-58.6797063,-34.4457601],[-58.684892,-34.4431524],[-58.6864494,-34.4423692],[-58.6992162,-34.4370931],[-58.7004516,-34.4365825],[-58.7006132,-34.4365154],[-58.7006937,-34.436482],[-58.7020674,-34.4359101],[-58.7034148,-34.4353492],[-58.704049,-34.4350852],[-58.7096351,-34.4327597],[-58.7110519,-34.4321822],[-58.7111653,-34.4321227]]]}},{"type":"Feature","properties":{"circuito_id":"0536A","nombre":"Rincón de Milberg","localidad":"Rincón de Milberg","osm_id":2409629},"geometry":{"type":"Polygon","coordinates":[[[-58.6485486,-34.4029585],[-58.6423395,-34.4047344],[-58.6406922,-34.4052027],[-58.6404513,-34.4052712],[-58.6394111,-34.405567],[-58.6391947,-34.4056285],[-58.6378364,-34.4060113],[-58.6373197,-34.4061569],[-58.6345788,-34.4069698],[-58.6338654,-34.4071814],[-58.6337194,-34.4072247],[-58.6335054,-34.407286],[-58.6325994,-34.4075455],[-58.6324989,-34.4075743],[-58.630258,-34.4082209],[-58.6284986,-34.4087285],[-58.626519,-34.4092997],[-58.6258964,-34.4094793],[-58.6262648,-34.4103881],[-58.6264422,-34.4109943],[-58.6265218,-34.4116211],[-58.6265542,-34.4125533],[-58.6264921,-34.4131514],[-58.6263914,-34.4138044],[-58.6261914,-34.4144816],[-58.6258903,-34.4152571],[-58.6253706,-34.4162053],[-58.625073,-34.4166299],[-58.6246233,-34.4171098],[-58.6239735,-34.417688],[-58.6235412,-34.4180535],[-58.609585,-34.4307132],[-58.6060853,-34.433895],[-58.6028723,-34.4368515],[-58.6003908,-34.4391389],[-58.599654,-34.4397321],[-58.5986376,-34.440407],[-58.597406,-34.4412499],[-58.5968577,-34.441583],[-58.5966858,-34.4412226],[-58.5966697,-34.4411884],[-58.5966532,-34.4411532],[-58.5963479,-34.4405238],[-58.5962695,-34.4403623],[-58.59625,-34.44024],[-58.59617,-34.43995],[-58.5961595,-34.4398698],[-58.5961788,-34.4398361],[-58.5961897,-34.4398],[-58.5961893,-34.4397447],[-58.5961691,-34.439692],[-58.5961311,-34.4396465],[-58.5960786,-34.4396123],[-58.5960161,-34.4395922],[-58.59596,-34.4395877],[-58.5959,-34.43953],[-58.595868,-34.4394932],[-58.5956971,-34.4392342],[-58.5956321,-34.4390887],[-58.5955475,-34.4388994],[-58.5953116,-34.4384114],[-58.5950162,-34.4377966],[-58.5947236,-34.4371916],[-58.5944316,-34.4365839],[-58.5940186,-34.4357414],[-58.5936234,-34.4349977],[-58.5935771,-34.434893],[-58.5935295,-34.4347768],[-58.5934662,-34.4346],[-58.5934132,-34.4344243],[-58.5933302,-34.4341695],[-58.5924171,-34.4315004],[-58.592401,-34.4314532],[-58.5923539,-34.4313125],[-58.5921535,-34.430738],[-58.5921293,-34.4306476],[-58.5921126,-34.4305703],[-58.592105,-34.4304907],[-58.5921124,-34.4303887],[-58.5921343,-34.4302679],[-58.5921837,-34.4300992],[-58.5921974,-34.4299432],[-58.5921961,-34.4298636],[-58.5921814,-34.429738],[-58.5921664,-34.429683],[-58.5920948,-34.4294448],[-58.592045,-34.4292777],[-58.5919647,-34.4290186],[-58.591893,-34.4288028],[-58.5918641,-34.428756],[-58.5918383,-34.4286594],[-58.5915817,-34.4278326],[-58.591576,-34.4278062],[-58.591568,-34.4277695],[-58.591552,-34.4276953],[-58.5915415,-34.4276587],[-58.5914202,-34.4272513],[-58.5913427,-34.4271178],[-58.5910045,-34.4264691],[-58.5906327,-34.4257752],[-58.5906044,-34.4257224],[-58.5905393,-34.4256258],[-58.5904339,-34.4254775],[-58.5902457,-34.4252043],[-58.5901933,-34.4251302],[-58.5900955,-34.4249856],[-58.5898309,-34.4246082],[-58.5894403,-34.424022],[-58.5893986,-34.4239643],[-58.5893079,-34.4238253],[-58.5891018,-34.4235222],[-58.5889383,-34.4232591],[-58.5888451,-34.4230521],[-58.5887098,-34.4226262],[-58.5886773,-34.4225434],[-58.588292,-34.4217405],[-58.5881066,-34.4213711],[-58.5880399,-34.4212325],[-58.5878804,-34.4209098],[-58.5878416,-34.4207983],[-58.5878011,-34.4205289],[-58.5877699,-34.4200371],[-58.5877555,-34.4198311],[-58.5877359,-34.4193002],[-58.5877348,-34.4192708],[-58.5877185,-34.4190799],[-58.5877375,-34.4189287],[-58.5878225,-34.4188293],[-58.5879215,-34.4186687],[-58.5880199,-34.418509],[-58.5880651,-34.4183904],[-58.5882633,-34.4181647],[-58.5883717,-34.4180799],[-58.5885743,-34.4179415],[-58.5889233,-34.4177481],[-58.589106,-34.4176347],[-58.5892115,-34.4175463],[-58.5894282,-34.4173505],[-58.5895281,-34.4172465],[-58.589601,-34.4171647],[-58.5896335,-34.4171056],[-58.5896655,-34.4170301],[-58.5897224,-34.4168485],[-58.5898397,-34.4164633],[-58.5898708,-34.4163835],[-58.590041,-34.4160287],[-58.5903827,-34.4153357],[-58.5904521,-34.4152024],[-58.5908853,-34.4143281],[-58.5909478,-34.414202],[-58.5912837,-34.4135569],[-58.5914207,-34.4132572],[-58.5919683,-34.4121916],[-58.592526,-34.4110818],[-58.5926958,-34.4107232],[-58.5927591,-34.4105899],[-58.5927819,-34.4104861],[-58.592594,-34.4102234],[-58.5923127,-34.4098301],[-58.5922399,-34.4097242],[-58.5921475,-34.4096075],[-58.5918989,-34.4093433],[-58.5918377,-34.4092907],[-58.5917636,-34.4092513],[-58.5916948,-34.4092365],[-58.5919274,-34.4090503],[-58.5918712,-34.4089999],[-58.5918149,-34.4089496],[-58.5914518,-34.4086236],[-58.5911928,-34.4083924],[-58.5906974,-34.4080633],[-58.5925664,-34.4063313],[-58.5935745,-34.4052877],[-58.5941703,-34.4046637],[-58.5948534,-34.4042739],[-58.595545,-34.403885],[-58.5972185,-34.4030167],[-58.598571,-34.4025298],[-58.6000694,-34.4020817],[-58.6008041,-34.4018013],[-58.6014643,-34.4013929],[-58.6018664,-34.4011441],[-58.6044879,-34.3993468],[-58.6071443,-34.3971982],[-58.6091341,-34.3956986],[-58.6100794,-34.395078],[-58.6109386,-34.3945475],[-58.6184563,-34.3904419],[-58.6185385,-34.3904153],[-58.6206531,-34.3897319],[-58.6220112,-34.3892204],[-58.6259986,-34.3877075],[-58.6289469,-34.3864093],[-58.6300274,-34.3859267],[-58.6308928,-34.3854828],[-58.6316693,-34.384981],[-58.6324113,-34.3844014],[-58.633001,-34.3839512],[-58.6335966,-34.3834964],[-58.6344822,-34.3830088],[-58.6358842,-34.3823594],[-58.6369405,-34.3819781],[-58.6377702,-34.3817749],[-58.6383167,-34.3816622],[-58.6389531,-34.3816092],[-58.6396621,-34.3814408],[-58.639907,-34.3817918],[-58.6423683,-34.3852348],[-58.6427227,-34.3858015],[-58.6450532,-34.3890018],[-58.6450885,-34.3890649],[-58.6451051,-34.3891106],[-58.6451129,-34.3891482],[-58.6451125,-34.3891858],[-58.6450859,-34.3892137],[-58.6450556,-34.3892332],[-58.6450066,-34.3892527],[-58.644897,-34.3892932],[-58.6441751,-34.3895125],[-58.64408,-34.3895414],[-58.6422894,-34.3900563],[-58.639933,-34.3907308],[-58.6367736,-34.3916498],[-58.6397741,-34.3956999],[-58.640502,-34.3954977],[-58.6416292,-34.3951785],[-58.642557,-34.3949131],[-58.6427016,-34.3948669],[-58.6428396,-34.3948139],[-58.6427842,-34.3947361],[-58.6428818,-34.3947275],[-58.6440786,-34.3943655],[-58.6444692,-34.3942473],[-58.6458262,-34.3961579],[-58.6465174,-34.397131],[-58.6473675,-34.3983279],[-58.6474485,-34.3984598],[-58.6463468,-34.3987779],[-58.6459627,-34.3988907],[-58.6458037,-34.3989405],[-58.6458391,-34.3990055],[-58.6463853,-34.3997735],[-58.6485486,-34.4029585]]]}},{"type":"Feature","properties":{"circuito_id":"00533","nombre":"Dique Luján","localidad":"Dique Luján","osm_id":2410912},"geometry":{"type":"Polygon","coordinates":[[[-58.7214479,-34.3644438],[-58.7214004,-34.36447],[-58.7199901,-34.3651883],[-58.7193693,-34.3655125],[-58.7192459,-34.3655863],[-58.7191202,-34.3656752],[-58.7167416,-34.3669178],[-58.7153553,-34.3676395],[-58.7089913,-34.3709402],[-58.708327,-34.3712841],[-58.7081506,-34.3713821],[-58.7075249,-34.3717239],[-58.7064457,-34.3722716],[-58.7062071,-34.3723927],[-58.7060951,-34.3724408],[-58.706024,-34.3724551],[-58.7058065,-34.372514],[-58.7057142,-34.3725392],[-58.7056341,-34.3725711],[-58.7050426,-34.3730553],[-58.706487,-34.3754182],[-58.7109721,-34.3827337],[-58.7130245,-34.3860662],[-58.7139177,-34.3874557],[-58.7142632,-34.3879587],[-58.7144094,-34.3881353],[-58.7145503,-34.3882907],[-58.7148262,-34.3885609],[-58.715179,-34.3888545],[-58.7154422,-34.3890434],[-58.7156091,-34.3891518],[-58.7158088,-34.3892712],[-58.7160387,-34.3893959],[-58.7164052,-34.3895693],[-58.7167556,-34.389709],[-58.7171148,-34.3898282],[-58.7174394,-34.3899167],[-58.7177962,-34.389994],[-58.7181127,-34.3900438],[-58.7184332,-34.3900711],[-58.7189342,-34.3901035],[-58.7194921,-34.3900919],[-58.7198842,-34.3900507],[-58.7203721,-34.3899632],[-58.7205547,-34.3899224],[-58.7208896,-34.3898475],[-58.7185827,-34.3908567],[-58.7167139,-34.3917215],[-58.7161758,-34.3919886],[-58.7155781,-34.3922964],[-58.7125322,-34.3939556],[-58.711927,-34.3942827],[-58.7062727,-34.3973389],[-58.7049764,-34.398044],[-58.7044388,-34.397758],[-58.6981829,-34.3944228],[-58.6976998,-34.3941632],[-58.6972373,-34.3947558],[-58.6970854,-34.3948456],[-58.6967184,-34.3950554],[-58.6957623,-34.3955726],[-58.6950236,-34.3959765],[-58.693494,-34.3967987],[-58.6929433,-34.3970885],[-58.6928659,-34.3971325],[-58.6917889,-34.3966359],[-58.6917906,-34.3966081],[-58.6917879,-34.3965346],[-58.6917663,-34.3964743],[-58.6917325,-34.3964119],[-58.6916798,-34.3963417],[-58.691619,-34.3962937],[-58.6914987,-34.396219],[-58.6904845,-34.3957107],[-58.6888753,-34.3948882],[-58.6881067,-34.3944646],[-58.6878935,-34.3943754],[-58.6876864,-34.3943011],[-58.6875002,-34.3942143],[-58.687188,-34.3940434],[-58.681805,-34.3911721],[-58.6750349,-34.3875673],[-58.6681958,-34.3839054],[-58.667902,-34.3837475],[-58.6674793,-34.3835204],[-58.6616048,-34.3803636],[-58.6551724,-34.3768944],[-58.6544846,-34.376516],[-58.6537373,-34.3761235],[-58.6525779,-34.3754445],[-58.6528526,-34.3752395],[-58.6534359,-34.3747669],[-58.6544216,-34.3739481],[-58.6558157,-34.372908],[-58.6563599,-34.3724787],[-58.6566908,-34.3721156],[-58.6582083,-34.3701331],[-58.6588821,-34.369078],[-58.6591701,-34.3684333],[-58.6594083,-34.3678573],[-58.6597613,-34.3672331],[-58.6600257,-34.3669062],[-58.660426,-34.3666624],[-58.6611975,-34.3664225],[-58.6621786,-34.3662215],[-58.6643149,-34.3655847],[-58.6647616,-34.3653359],[-58.6652188,-34.3649291],[-58.665858,-34.3642511],[-58.6665813,-34.3633657],[-58.6676509,-34.3619456],[-58.6702253,-34.3608122],[-58.671936,-34.3601866],[-58.6729573,-34.3599271],[-58.6734931,-34.3598619],[-58.6740753,-34.3598415],[-58.674493,-34.3598269],[-58.6753572,-34.3597679],[-58.6761214,-34.3595969],[-58.6770508,-34.3592497],[-58.6777744,-34.3588369],[-58.6782473,-34.3584857],[-58.6786314,-34.3581823],[-58.6791261,-34.3577259],[-58.6800602,-34.3568641],[-58.681333,-34.3557445],[-58.6844009,-34.3532126],[-58.6852222,-34.3525019],[-58.6857158,-34.3519596],[-58.6860595,-34.3514189],[-58.6879292,-34.3494646],[-58.6882498,-34.3490654],[-58.6884597,-34.3487445],[-58.6887258,-34.3484249],[-58.6890582,-34.3480418],[-58.6894126,-34.3477213],[-58.6903422,-34.3470296],[-58.6904808,-34.3469009],[-58.6947807,-34.3490528],[-58.6998801,-34.3517074],[-58.7131824,-34.358508],[-58.7132952,-34.3585664],[-58.7163379,-34.360155],[-58.7190532,-34.3615273],[-58.7191812,-34.3616266],[-58.7192923,-34.3617128],[-58.7205247,-34.3631548],[-58.7205942,-34.3633053],[-58.7208371,-34.3639049],[-58.7209101,-34.3640081],[-58.7210043,-34.3641262],[-58.7211235,-34.3642445],[-58.7212034,-34.3643063],[-58.7212816,-34.3643666],[-58.7214479,-34.3644438]]]}}]}